C/2014 C3 (NEOWISE),e,151.7963,204.4954,346.0016,106.7597,0.0008935,0.98252117,0.0000,01/16.3285/2014,2000,g 14.0,4.0
# From MPC 91614
P/2014 E1 (Larson),e,15.9836,39.0631,185.8863,3.714056,0.1376992,0.42380787,154.2667,06/16.0/2017,2000,g 14.0,4.0
# From MPC102951
C/2014 E2 (Jacques),e,156.3479,56.5301,344.1122,739.9065,0.0000490,0.99910528,0.0000,07/02.5929/2014,2000,g  7.1,4.4
# From MPC 90769
C/2014 F1 (Hill),e,108.2643,239.8418,8.2750,1980,0.0000112,0.99823187,0.0000,10/04.5651/2013,2000,g 10.5,4.0
# From MPC 97495
C/2014 F2 (Tenagra),e,119.0776,267.4463,86.1221,146.8133,0.0005541,0.97059601,0.0000,01/02.7298/2015,2000,g  9.5,4.0
# From MPC 94280
C/2014 F3 (Sheppard-Trujillo),e,6.4813,327.5069,0.9980,16.24897,0.0150475,0.64731388,338.6940,06/16.0/2017,2000,g  6.0,4.0
# From MPC 90272
C/2014 G1 (PANSTARRS),e,165.6346,337.9592,77.1297,584.1358,0.0000698,0.99062237,0.0000,11/05.3211/2013,2000,g  9.0,4.0
# From MPC101095
C/2014 G3 (PANSTARRS),e,156.0715,4.7058,148.0191,53.22292,0.0025384,0.91166131,2.1953,06/16.0/2017,2000,g  9.0,4.0
# From MPC 88697
C/2014 H1 (Christensen),e,99.9393,34.6625,169.2661,137.6646,0.0006102,0.98442982,0.0000,04/15.1991/2014,2000,g 14.5,4.0
# From MPEC 2016-VB6
C/2014 HU195,e,5.8205,115.7833,145.1183,21.95775,0.0095790,0.76673882,7.2748,06/16.0/2017,2000,g 10.5,4.0
# From MPC 89010
C/2014 J1 (Catalina),e,159.7049,41.9704,195.5399,8.661658,0.0386636,0.80244727,42.2261,06/16.0/2017,2000,g 17.0,4.0
# From MPC 93585
P/2014 L2 (NEOWISE),e,5.1855,149.3970,182.6712,6.310537,0.0621734,0.64642698,66.3264,06/16.0/2017,2000,g 12.0,4.0
# From MPC 90769
P/2014 L3 (Hill),e,6.2672,115.5270,178.5465,8.155743,0.0423164,0.77322250,45.8358,06/16.0/2017,2000,g 16.0,4.0
# From MPC 95731
C/2014 L5 (Lemmon),h,11/25.4224/2014,122.8135,35.7196,45.5634,1.001271,6.201380,2000,8.0,4.0
# From MPC103844
C/2014 M1 (PANSTARRS),h,08/27.5464/2015,160.2064,234.7300,336.9540,1.001024,5.584076,2000,9.0,4.0
# From MPC 95732
C/2014 M2 (Christensen),e,32.4010,245.2717,40.7614,1323,0.0000205,0.99477842,0.0000,07/18.5015/2014,2000,g  6.0,4.0
# From MPC 90769
C/2014 M3 (Catalina),e,164.9042,80.3681,93.6400,130.6870,0.0006597,0.98139384,0.0000,06/21.3567/2014,2000,g 14.0,4.0
# From MPC 91614
P/2014 M4 (PANSTARRS),e,3.3312,263.5030,147.7965,5.883237,0.0690684,0.59505374,62.2329,06/16.0/2017,2000,g 15.0,4.0
# From MPC103844
P/2014 MG4 (Spacewatch-PANSTARRS),e,9.3655,311.8125,298.7938,5.011686,0.0878473,0.25991962,128.5191,06/16.0/2017,2000,g  9.5,4.0
# From MPC 93586
C/2014 N2 (PANSTARRS),e,132.8824,143.8732,238.0224,2673,0.0000071,0.99918050,0.0000,10/07.7800/2014,2000,g 14.5,4.0
# From MPC103844
C/2014 N3 (NEOWISE),e,61.6434,19.9328,353.4954,2296,0.0000090,0.99831038,0.0000,03/12.8043/2015,2000,g  7.0,4.0
# From MPC 98560
P/2014 O3 (PANSTARRS),e,7.8067,87.6573,204.3131,7.547881,0.0475299,0.38569749,54.9320,06/16.0/2017,2000,g 10.5,4.0
# From MPC105236
C/2014 OE4 (PANSTARRS),e,81.3471,240.3943,65.7585,30266,0.0000002,0.99979368,0.0000,12/10.9180/2016,2000,g 11.0,2.0
# From MPC100578
C/2014 Q1 (PANSTARRS),e,43.1088,8.7470,120.1044,1267,0.0000219,0.99975082,0.0000,07/06.3967/2015,2000,g  8.0,4.0
# From MPC103844
C/2014 Q2 (Lovejoy),e,80.2653,95.0071,12.4068,532.5650,0.0000802,0.99757500,0.0000,01/29.8933/2015,2000,g  2.7,10.0
# From MPC 90770
C/2014 QU2 (PANSTARRS),e,124.8146,332.9801,320.3522,231.4329,0.0002799,0.99041047,0.0000,07/09.6944/2014,2000,g 15.0,4.0
# From MPC102952
C/2014 Q3 (Borisov),e,89.8993,63.1396,47.3811,28.25414,0.0065627,0.94166444,6.1703,06/16.0/2017,2000,g -0.5,20.0
# From MPC 95732
C/2014 Q6 (PANSTARRS),e,49.7931,326.6317,2.4697,3327,0.0000051,0.99873143,0.0000,01/05.9680/2015,2000,g  9.5,4.0
# From MPC 95211
C/2014 R1 (Borisov),e,9.9241,104.0482,55.7172,183.4715,0.0003966,0.99265336,0.0000,11/19.1446/2014,2000,g  6.5,8.8
# From MPC105236
C/2014 R3 (PANSTARRS),e,90.8415,334.1064,113.4328,11235,0.0000008,0.99935241,0.0000,08/08.3168/2016,2000,g  6.5,4.0
# From MPC 92982
C/2014 R4 (Gibbs),e,42.4013,279.5323,180.8166,1211,0.0000234,0.99849713,0.0000,10/21.0209/2014,2000,g 13.0,4.0
# From MPC 91615
P/2014 R5 (Lemmon-PANSTARRS),e,1.0882,126.5435,213.7648,4.060283,0.1204674,0.41227182,131.9373,06/16.0/2017,2000,g 15.0,4.0
# From MPC 95732
C/2014 S1 (PANSTARRS),h,10/30.7428/2013,123.8023,352.6557,288.8055,1.003508,8.134302,2000,7.0,4.0
# From MPC104790
C/2014 S2 (PANSTARRS),e,64.4653,8.0778,87.4873,201.2572,0.0003452,0.98964305,0.0000,12/10.2676/2015,2000,g 10.0,4.0
# From MPC 90770
C/2014 S3 (PANSTARRS),e,169.3230,356.0603,293.0991,88.31505,0.0011876,0.97683283,0.0000,08/13.4913/2014,2000,g 17.0,4.0
# From MPC 91615
C/2014 TG64 (Catalina),e,22.2953,50.3049,294.6398,14.80654,0.0172991,0.78155229,19.3302,06/16.0/2017,2000,g 13.0,4.0
# From MPC 92274
P/2014 U2 (Kowalski),e,7.4192,355.7791,35.5689,2.921659,0.1973603,0.61113844,192.6519,06/16.0/2017,2000,g 19.5,4.0
# From MPC 91616
C/2014 U3 (Kowalski),e,152.9826,163.5890,51.3417,976.1770,0.0000323,0.99737940,0.0000,09/03.8788/2014,2000,g 14.5,4.0
# From MPC 91616
P/2014 U4 (PANSTARRS),e,6.4551,12.0244,348.0350,3.495036,0.1508435,0.46820963,158.2249,06/16.0/2017,2000,g 18.0,4.0
# From MPC 95211
P/2014 V1 (PANSTARRS),e,22.4727,166.2550,177.6213,5.489730,0.0766263,0.53250249,67.2569,06/16.0/2017,2000,g 14.0,4.0
# From MPC 93586
P/2014 W1 (PANSTARRS),e,8.8180,246.4554,152.1746,4.444148,0.1052013,0.39381273,110.3876,06/16.0/2017,2000,g 15.5,4.0
# From MPC105236
C/2014 W2 (PANSTARRS),e,82.0054,69.9607,85.0250,1360,0.0000197,0.99803573,0.0000,03/10.4721/2016,2000,g  7.5,4.0
# From MPC 98561
C/2014 W3 (PANSTARRS),h,02/27.4090/2014,90.1372,286.3999,158.9627,1.006209,6.069058,2000,8.5,4.0
# From MPC104790
P/2014 W4 (PANSTARRS),e,15.2752,33.3406,67.6470,6.595395,0.0581893,0.35357704,31.0040,06/16.0/2017,2000,g 11.0,4.0
# From MPC 95211
C/2014 W6 (Catalina),h,03/19.1820/2015,53.5604,338.1407,209.9178,1.001601,3.090195,2000,10.5,4.0
# From MPC 92982
C/2014 W7 (Christensen),e,98.2821,151.2697,33.2820,11.40528,0.0255885,0.86945275,22.9586,06/16.0/2017,2000,g 16.0,4.0
# From MPC 91616
C/2014 W8 (PANSTARRS),e,41.9433,224.8510,228.0839,186.0738,0.0003883,0.97300032,0.0000,09/10.4817/2015,2000,g 11.0,4.0
# From MPC 94672
C/2014 W9 (PANSTARRS),e,10.6308,21.2740,167.8555,11.19656,0.0263074,0.85802827,22.3942,06/16.0/2017,2000,g 16.0,4.0
# From MPC105236
C/2014 W11 (PANSTARRS),e,12.7042,295.8697,225.6299,9.727968,0.0324841,0.64771522,23.7236,06/16.0/2017,2000,g 10.0,4.0
# From MPC 93587
P/2014 W12 (Gibbs),e,8.5118,299.2706,36.9829,3.518029,0.1493671,0.52334191,141.0517,06/16.0/2017,2000,g 15.0,4.0
# From MPC 94281
P/2014 X1 (Elenin),e,26.0048,61.5132,34.2624,6.237154,0.0632739,0.70951354,56.3622,06/16.0/2017,2000,g 15.0,4.0
# From MPC 96866
C/2014 XB8 (PANSTARRS),e,149.7885,37.4881,351.4206,937.9167,0.0000343,0.99679279,0.0000,04/05.5498/2015,2000,g 13.5,4.0
# From MPC100579
C/2014 Y1 (PANSTARRS),h,01/17.6128/2016,14.9285,19.4681,182.2917,1.001740,2.242883,2000,9.5,4.0
# From MPC 95733
C/2015 A1 (PANSTARRS),e,80.3465,341.0851,244.9070,20.23411,0.0108287,0.90137715,8.9417,06/16.0/2017,2000,g 14.5,4.0
# From MPC 93587
C/2015 A2 (PANSTARRS),p,08/01.8353/2015,109.1696,208.8369,5.341055,258.5042,2000,10.5,4.0
# From MPC 92275
P/2015 A3 (PANSTARRS),e,172.5188,277.0986,249.2260,7.840523,0.0448938,0.85273936,37.9196,06/16.0/2017,2000,g 20.0,4.0
# From MPC 99270
P/2015 B1 (PANSTARRS),e,18.0309,353.3253,188.5595,9.561464,0.0333363,0.37484467,21.0932,06/16.0/2017,2000,g  8.5,4.0
# From MPC102952
C/2015 B2 (PANSTARRS),h,05/06.5973/2016,105.0819,341.9051,284.7682,1.000850,3.369404,2000,9.5,4.0
# From MPC 10027
P/2015 B4 (Lemmon-PANSTARRS),e,1.7506,266.1538,227.7707,8.608355,0.0390233,0.56481423,33.2808,06/16.0/2017,2000,g 11.0,4.0
# From MPC101096
P/2015 C1 (TOTAS-Gibbs),e,13.8800,348.8527,178.4229,6.594824,0.0581968,0.56115694,45.2135,06/16.0/2017,2000,g 12.5,4.0
# From MPC 95211
C/2015 C2 (SWAN),e,94.4814,49.5735,334.0940,408.4301,0.0001194,0.99826053,0.0000,03/04.4561/2015,2000,g 14.0,4.0
# From MPC 98561
C/2015 D2 (PANSTARRS),e,31.8970,162.8017,292.6902,12.87885,0.0213250,0.56158971,28.8907,06/16.0/2017,2000,g  8.0,4.0
# From MPC104790
C/2015 D3 (PANSTARRS),h,05/02.1808/2016,128.5097,156.9819,2.9349,1.002271,8.149871,2000,5.5,4.0
# From MPC 94672
C/2015 D4 (Borisov),e,77.3092,305.7230,314.6620,78.18664,0.0014256,0.98900000,0.0000,10/28.2848/2014,2000,g 12.0,4.0
# From MPC 96866
P/2015 D5 (Kowalski),e,20.4576,74.1288,40.1643,9.025690,0.0363482,0.49306872,42.2279,06/16.0/2017,2000,g  9.0,4.0
# From MPC 96866
P/2015 D6 (Lemmon-PANSTARRS),e,20.2320,46.2320,125.6138,7.183816,0.0511884,0.36480220,36.0333,06/16.0/2017,2000,g 10.5,4.0
# From MPC105236
C/2015 ER61 (PANSTARRS),e,6.3488,235.2208,68.1941,389.5383,0.0001282,0.99732469,0.0000,05/09.9444/2017,2000,g 11.0,2.0
# From MPEC 2017-M09
C/2015 E61-B (PANSTARRS),p,05/10.2353/2017,6.3259,67.5047,1.030339,235.0844,2000,13.5,2.0
# From MPC 95211
P/2015 F1 (PANSTARRS),e,2.8042,40.4231,187.2533,3.523793,0.1490007,0.27855196,122.7065,06/16.0/2017,2000,g 12.5,4.0
# From MPC 95733
C/2015 F2 (Polonia),e,28.7072,262.4957,352.0793,38.60054,0.0041097,0.96865453,3.2016,06/16.0/2017,2000,g 16.5,4.0
# From MPC 96279
C/2015 F3 (SWAN),e,73.4292,31.6467,57.4976,200.1031,0.0003482,0.99583474,0.0000,03/08.9967/2015,2000,g 14.5,4.0
# From MPC102952
C/2015 F4 (Jacques),e,48.7263,285.9391,36.3261,114.1714,0.0008079,0.98560994,0.0000,08/10.8513/2015,2000,g 11.0,4.0
# From MPC 95212
C/2015 F5 (SWAN-Xingming),e,149.2471,287.7630,13.4011,15.51604,0.0161262,0.97768897,0.0000,03/27.9389/2015,2000,g 15.5,4.0
# From MPC102096
C/2015 GX (PANSTARRS),e,90.2731,235.5249,108.9416,16.18527,0.0151365,0.87822826,9.9794,06/16.0/2017,2000,g 14.0,4.0
# From MPC102952
C/2015 G2 (MASTER),h,05/23.7281/2015,147.5887,110.0985,257.5223,1.000359,0.781016,2000,11.0,4.0
# From MPC 95733
C/2015 H1 (Bressi),e,140.5952,325.8997,21.8869,32.14394,0.0054082,0.93994802,4.3855,06/16.0/2017,2000,g 13.5,4.0
# From MPC102096
